{
  "type": "FeatureCollection",
  "features": [
    {
      "type": "Feature",
      "properties": { "code": "97101", "code_insee": "97101", "nom": "Les Abymes" },
      "geometry": {
        "type": "Polygon",
        "coordinates": [[[-61.52, 16.27], [-61.45, 16.27], [-61.45, 16.32], [-61.52, 16.32], [-61.52, 16.27]]]
      }
    },
    {
      "type": "Feature",
      "properties": { "code": "97102", "code_insee": "97102", "nom": "Anse-Bertrand" },
      "geometry": {
        "type": "Polygon",
        "coordinates": [[[-61.55, 16.45], [-61.48, 16.45], [-61.48, 16.50], [-61.55, 16.50], [-61.55, 16.45]]]
      }
    },
    {
      "type": "Feature",
      "properties": { "code": "97201", "code_insee": "97201", "nom": "Fort-de-France" },
      "geometry": {
        "type": "Polygon",
        "coordinates": [[[-61.08, 14.60], [-61.02, 14.60], [-61.02, 14.65], [-61.08, 14.65], [-61.08, 14.60]]]
      }
    },
    {
      "type": "Feature",
      "properties": { "code": "97202", "code_insee": "97202", "nom": "Le Lamentin" },
      "geometry": {
        "type": "Polygon",
        "coordinates": [[[-61.02, 14.61], [-60.96, 14.61], [-60.96, 14.66], [-61.02, 14.66], [-61.02, 14.61]]]
      }
    },
    {
      "type": "Feature",
      "properties": { "code": "97301", "code_insee": "97301", "nom": "Cayenne" },
      "geometry": {
        "type": "Polygon",
        "coordinates": [[[-52.35, 4.92], [-52.28, 4.92], [-52.28, 4.98], [-52.35, 4.98], [-52.35, 4.92]]]
      }
    },
    {
      "type": "Feature",
      "properties": { "code": "97302", "code_insee": "97302", "nom": "Saint-Laurent-du-Maroni" },
      "geometry": {
        "type": "Polygon",
        "coordinates": [[[-54.05, 5.48], [-53.98, 5.48], [-53.98, 5.53], [-54.05, 5.53], [-54.05, 5.48]]]
      }
    },
    {
      "type": "Feature",
      "properties": { "code": "97401", "code_insee": "97401", "nom": "Saint-Denis" },
      "geometry": {
        "type": "Polygon",
        "coordinates": [[[55.43, -20.88], [55.48, -20.88], [55.48, -20.84], [55.43, -20.84], [55.43, -20.88]]]
      }
    },
    {
      "type": "Feature",
      "properties": { "code": "97402", "code_insee": "97402", "nom": "Saint-Paul" },
      "geometry": {
        "type": "Polygon",
        "coordinates": [[[55.25, -21.00], [55.32, -21.00], [55.32, -20.95], [55.25, -20.95], [55.25, -21.00]]]
      }
    },
    {
      "type": "Feature",
      "properties": { "code": "97601", "code_insee": "97601", "nom": "Mamoudzou" },
      "geometry": {
        "type": "Polygon",
        "coordinates": [[[45.22, -12.78], [45.28, -12.78], [45.28, -12.73], [45.22, -12.73], [45.22, -12.78]]]
      }
    },
    {
      "type": "Feature",
      "properties": { "code": "97602", "code_insee": "97602", "nom": "Dzaoudzi" },
      "geometry": {
        "type": "Polygon",
        "coordinates": [[[45.28, -12.80], [45.32, -12.80], [45.32, -12.76], [45.28, -12.76], [45.28, -12.80]]]
      }
    }
  ]
}
